[Satellite]
VERSION=1.1
NAME=GSAT0102 (GALILEO-FM2)
NICKNAME=GSAT0102 (GALILEO-FM2)
TLE1=1 37847U 11060B   17183.34696976 -.00000082  00000-0  00000-0 0  9998
TLE2=2 37847  55.8377  71.2860 0004515 329.7006   2.0780  1.70476043 35469
